{
  "type": "FeatureCollection",
  "features": [
    {
      "type": "Feature",
      "properties": {
        "norad_id": 66835,
        "name": "STARLINK-35890",
        "group": "last-30-days",
        "lat": 21.70163995376881,
        "lon": 170.5460890458269,
        "alt_km": 409.19065278317976,
        "timestamp": "2025-12-25T22:42:15.709467+00:00",
        "meta_object_name": "STARLINK-35890",
        "meta_object_id": "2025-280Q",
        "meta_epoch": "2025-12-25T16:25:10.942752",
        "meta_mean_motion": 15.52543513,
        "meta_eccentricity": 0.0003225,
        "meta_inclination": 70.0008,
        "meta_ra_of_asc_node": 162.9286,
        "meta_arg_of_pericenter": 274.2476,
        "meta_mean_anomaly": 85.8342,
        "meta_ephemeris_type": 0,
        "meta_classification_type": "U",
        "meta_norad_cat_id": 66835,
        "meta_element_set_no": 999,
        "meta_rev_at_epoch": 494,
        "meta_bstar": 0.0012482,
        "meta_mean_motion_dot": 0.00077441,
        "meta_mean_motion_ddot": 0,
        "tle_line1": "1 66835U 25280Q   25359.68415443  .00077441  00000+0  12482-2 0  9995",
        "tle_line2": "2 66835  70.0008 162.9286 0003225 274.2476  85.8342 15.52543513  4944"
      },
      "geometry": {
        "type": "Point",
        "coordinates": [
          170.5460890458269,
          21.70163995376881
        ]
      }
    },
    {
      "type": "Feature",
      "properties": {
        "norad_id": 66836,
        "name": "STARLINK-35838",
        "group": "last-30-days",
        "lat": 23.48442077675872,
        "lon": 171.31415933880206,
        "alt_km": 409.0046002933559,
        "timestamp": "2025-12-25T22:42:15.709477+00:00",
        "meta_object_name": "STARLINK-35838",
        "meta_object_id": "2025-280R",
        "meta_epoch": "2025-12-25T16:24:41.262624",
        "meta_mean_motion": 15.52542907,
        "meta_eccentricity": 0.0003292,
        "meta_inclination": 70.0009,
        "meta_ra_of_asc_node": 162.9269,
        "meta_arg_of_pericenter": 274.0132,
        "meta_mean_anomaly": 86.0679,
        "meta_ephemeris_type": 0,
        "meta_classification_type": "U",
        "meta_norad_cat_id": 66836,
        "meta_element_set_no": 999,
        "meta_rev_at_epoch": 494,
        "meta_bstar": 0.0011967,
        "meta_mean_motion_dot": 0.0007421,
        "meta_mean_motion_ddot": 0,
        "tle_line1": "1 66836U 25280R   25359.68381091  .00074210  00000+0  11967-2 0  9995",
        "tle_line2": "2 66836  70.0009 162.9269 0003292 274.0132  86.0679 15.52542907  4940"
      },
      "geometry": {
        "type": "Point",
        "coordinates": [
          171.31415933880206,
          23.48442077675872
        ]
      }
    },
    {
      "type": "Feature",
      "properties": {
        "norad_id": 66837,
        "name": "STARLINK-35729",
        "group": "last-30-days",
        "lat": 25.25885364900586,
        "lon": 172.1016187045277,
        "alt_km": 408.72705257095095,
        "timestamp": "2025-12-25T22:42:15.709489+00:00",
        "meta_object_name": "STARLINK-35729",
        "meta_object_id": "2025-280S",
        "meta_epoch": "2025-12-25T16:24:11.662848",
        "meta_mean_motion": 15.52541419,
        "meta_eccentricity": 0.0003403,
        "meta_inclination": 70.001,
        "meta_ra_of_asc_node": 162.9255,
        "meta_arg_of_pericenter": 276.5926,
        "meta_mean_anomaly": 83.4873,
        "meta_ephemeris_type": 0,
        "meta_classification_type": "U",
        "meta_norad_cat_id": 66837,
        "meta_element_set_no": 999,
        "meta_rev_at_epoch": 494,
        "meta_bstar": 0.0011782,
        "meta_mean_motion_dot": 0.00073048,
        "meta_mean_motion_ddot": 0,
        "tle_line1": "1 66837U 25280S   25359.68346832  .00073048  00000+0  11782-2 0  9993",
        "tle_line2": "2 66837  70.0010 162.9255 0003403 276.5926  83.4873 15.52541419  4944"
      },
      "geometry": {
        "type": "Point",
        "coordinates": [
          172.1016187045277,
          25.25885364900586
        ]
      }
    },
    {
      "type": "Feature",
      "properties": {
        "norad_id": 66838,
        "name": "STARLINK-35886",
        "group": "last-30-days",
        "lat": 28.824576894335454,
        "lon": 173.76434279967322,
        "alt_km": 408.536155270991,
        "timestamp": "2025-12-25T22:42:15.709500+00:00",
        "meta_object_name": "STARLINK-35886",
        "meta_object_id": "2025-280T",
        "meta_epoch": "2025-12-25T14:50:25.200672",
        "meta_mean_motion": 15.52530118,
        "meta_eccentricity": 0.0003432,
        "meta_inclination": 70.0008,
        "meta_ra_of_asc_node": 163.0992,
        "meta_arg_of_pericenter": 270.0473,
        "meta_mean_anomaly": 90.0321,
        "meta_ephemeris_type": 0,
        "meta_classification_type": "U",
        "meta_norad_cat_id": 66838,
        "meta_element_set_no": 999,
        "meta_rev_at_epoch": 493,
        "meta_bstar": 0.0012592,
        "meta_mean_motion_dot": 0.00078099,
        "meta_mean_motion_ddot": 0,
        "tle_line1": "1 66838U 25280T   25359.61834723  .00078099  00000+0  12592-2 0  9999",
        "tle_line2": "2 66838  70.0008 163.0992 0003432 270.0473  90.0321 15.52530118  4935"
      },
      "geometry": {
        "type": "Point",
        "coordinates": [
          173.76434279967322,
          28.824576894335454
        ]
      }
    },
    {
      "type": "Feature",
      "properties": {
        "norad_id": 66839,
        "name": "STARLINK-35717",
        "group": "last-30-days",
        "lat": 27.0385381324856,
        "lon": 172.91690032145777,
        "alt_km": 408.49330253691915,
        "timestamp": "2025-12-25T22:42:15.709510+00:00",
        "meta_object_name": "STARLINK-35717",
        "meta_object_id": "2025-280U",
        "meta_epoch": "2025-12-25T16:23:42.043200",
        "meta_mean_motion": 15.52543584,
        "meta_eccentricity": 0.0003167,
        "meta_inclination": 70.0008,
        "meta_ra_of_asc_node": 162.9239,
        "meta_arg_of_pericenter": 273.9605,
        "meta_mean_anomaly": 86.1219,
        "meta_ephemeris_type": 0,
        "meta_classification_type": "U",
        "meta_norad_cat_id": 66839,
        "meta_element_set_no": 999,
        "meta_rev_at_epoch": 494,
        "meta_bstar": 0.0016068,
        "meta_mean_motion_dot": 0.00100027,
        "meta_mean_motion_ddot": 0,
        "tle_line1": "1 66839U 25280U   25359.68312550  .00100027  00000+0  16068-2 0  9995",
        "tle_line2": "2 66839  70.0008 162.9239 0003167 273.9605  86.1219 15.52543584  4946"
      },
      "geometry": {
        "type": "Point",
        "coordinates": [
          172.91690032145777,
          27.0385381324856
        ]
      }
    },
    {
      "type": "Feature",
      "properties": {
        "norad_id": 66840,
        "name": "STARLINK-35837",
        "group": "last-30-days",
        "lat": 30.576422291679823,
        "lon": 174.62726699698462,
        "alt_km": 408.3011093342129,
        "timestamp": "2025-12-25T22:42:15.709522+00:00",
        "meta_object_name": "STARLINK-35837",
        "meta_object_id": "2025-280V",
        "meta_epoch": "2025-12-25T14:49:55.811712",
        "meta_mean_motion": 15.52541556,
        "meta_eccentricity": 0.0003396,
        "meta_inclination": 70.0008,
        "meta_ra_of_asc_node": 163.0984,
        "meta_arg_of_pericenter": 270.5405,
        "meta_mean_anomaly": 89.5392,
        "meta_ephemeris_type": 0,
        "meta_classification_type": "U",
        "meta_norad_cat_id": 66840,
        "meta_element_set_no": 999,
        "meta_rev_at_epoch": 493,
        "meta_bstar": 0.00084963,
        "meta_mean_motion_dot": 0.00052492,
        "meta_mean_motion_ddot": 0,
        "tle_line1": "1 66840U 25280V   25359.61800708  .00052492  00000+0  84963-3 0  9999",
        "tle_line2": "2 66840  70.0008 163.0984 0003396 270.5405  89.5392 15.52541556  4937"
      },
      "geometry": {
        "type": "Point",
        "coordinates": [
          174.62726699698462,
          30.576422291679823
        ]
      }
    },
    {
      "type": "Feature",
      "properties": {
        "norad_id": 66841,
        "name": "STARLINK-35715",
        "group": "last-30-days",
        "lat": 32.29465283165276,
        "lon": 175.50658045841357,
        "alt_km": 407.9198926643294,
        "timestamp": "2025-12-25T22:42:15.709531+00:00",
        "meta_object_name": "STARLINK-35715",
        "meta_object_id": "2025-280W",
        "meta_epoch": "2025-12-25T16:22:13.308672",
        "meta_mean_motion": 15.52527469,
        "meta_eccentricity": 0.0003258,
        "meta_inclination": 70.0008,
        "meta_ra_of_asc_node": 162.9203,
        "meta_arg_of_pericenter": 275.3909,
        "meta_mean_anomaly": 84.6906,
        "meta_ephemeris_type": 0,
        "meta_classification_type": "U",
        "meta_norad_cat_id": 66841,
        "meta_element_set_no": 999,
        "meta_rev_at_epoch": 494,
        "meta_bstar": 0.00097591,
        "meta_mean_motion_dot": 0.00060347,
        "meta_mean_motion_ddot": 0,
        "tle_line1": "1 66841U 25280W   25359.68209848  .00060347  00000+0  97591-3 0  9994",
        "tle_line2": "2 66841  70.0008 162.9203 0003258 275.3909  84.6906 15.52527469  4944"
      },
      "geometry": {
        "type": "Point",
        "coordinates": [
          175.50658045841357,
          32.29465283165276
        ]
      }
    }
  ]
}